OBJECT_NAME,OBJECT_ID,EPOCH,MEAN_MOTION,ECCENTRICITY,INCLINATION,RA_OF_ASC_NODE,ARG_OF_PERICENTER,MEAN_ANOMALY,EPHEMERIS_TYPE,CLASSIFICATION_TYPE,NORAD_CAT_ID,ELEMENT_SET_NO,REV_AT_EPOCH,BSTAR,MEAN_MOTION_DOT,MEAN_MOTION_DDOT
ONEWEB-0365,2021-090N,2026-07-21T07:18:07.909344,13.19726971,.00021055,87.9191,298.1756,101.4635,258.6735,0,U,49291,999,23092,.18622522E-3,.88E-6,0
ONEWEB-0366,2021-090P,2026-07-21T16:32:01.239936,13.14502409,.00020004,87.8964,282.8326,98.0554,262.0803,0,U,49292,999,23209,.10373393E-3,.51E-6,0
ONEWEB-0367,2021-090Q,2026-07-22T03:54:24.401952,13.20773509,.00022267,87.9176,267.4715,99.7693,260.3692,0,U,49293,999,23444,-.19107543E-3,-.65E-6,0
ONEWEB-0368,2021-090R,2026-07-22T03:16:51.927168,13.20771583,.00018379,87.9165,267.4829,117.9195,242.2124,0,U,49294,999,23559,-.3514406E-5,.12E-6,0
ONEWEB-0369,2021-090S,2026-07-21T12:38:50.150112,13.19727214,.00020233,87.9182,298.1363,102.6676,257.4683,0,U,49295,999,23094,.27781106E-3,.124E-5,0
ONEWEB-0370,2021-090T,2026-07-22T04:07:45.466464,13.20772549,.00022246,87.9179,267.4688,91.6915,268.4473,0,U,49296,999,23448,-.21110795E-4,.4E-7,0
ONEWEB-0371,2021-090U,2026-07-21T16:28:34.064832,13.19725631,.00020969,87.9190,298.0993,100.6399,259.4970,0,U,49297,999,23100,.44593729E-4,.31E-6,0
ONEWEB-0372,2021-090V,2026-07-22T03:53:01.005216,13.20769639,.00020683,87.9180,267.4729,98.4777,261.6591,0,U,49298,999,23445,-.1037376E-3,-.29E-6,0
ONEWEB-0373,2021-090W,2026-07-22T04:29:33.940032,13.20770032,.00019287,87.9177,267.4675,94.4621,265.6733,0,U,49299,999,23564,.28208091E-3,.128E-5,0
ONEWEB-0374,2021-090X,2026-07-22T03:11:23.358336,13.14502723,.00014363,87.8965,282.7361,93.3574,266.7720,0,U,49300,999,23215,.5555828E-3,.219E-5,0
ONEWEB-0375,2021-090Y,2026-07-22T04:12:35.910432,13.20770324,.00015208,87.9179,267.4620,88.8583,271.2725,0,U,49301,999,23514,-.43134271E-4,-.5E-7,0
ONEWEB-0376,2021-090Z,2026-07-21T16:26:16.966176,13.19724082,.00021288,87.9190,298.0995,104.8329,255.3040,0,U,49302,999,23100,.14971581E-4,.19E-6,0
ONEWEB-0377,2021-090AA,2026-07-22T03:53:23.635968,13.20769718,.00017192,87.9177,267.4667,97.8284,262.3044,0,U,49303,999,23513,-.79044405E-4,-.19E-6,0
ONEWEB-0378,2021-090AB,2026-07-22T04:22:30.677664,13.20772699,.00019053,87.9173,267.4656,98.3824,261.7525,0,U,49304,999,23440,.13431161E-3,.68E-6,0
ONEWEB-0379,2021-090AC,2026-07-21T23:25:19.904448,13.14502524,.00018792,87.8963,282.7772,100.0999,260.0343,0,U,49305,999,23213,.61984832E-3,.243E-5,0
ONEWEB-0380,2021-090AD,2026-07-21T23:38:26.588544,13.19726635,.00019312,87.9181,298.0426,94.9946,265.1407,0,U,49306,999,23101,-.26343604E-4,.2E-7,0
ONEWEB-0381,2021-090AE,2026-07-22T03:48:21.152160,13.20769611,.0001781,87.9180,267.4722,95.2828,264.8509,0,U,49307,999,23444,-.11596945E-3,-.34E-6,0
ONEWEB-0382,2021-090AF,2026-07-22T03:28:58.675584,13.20772038,.00017621,87.9176,267.4688,100.4828,259.6504,0,U,49308,999,23443,-.59672572E-4,-.11E-6,0
ONEWEB-0383,2021-090AG,2026-07-22T04:45:01.243584,13.14503924,.00018933,87.8965,282.7254,102.1416,257.9926,0,U,49309,999,23219,.36061329E-3,.146E-5,0
ONEWEB-0384,2021-090AH,2026-07-22T03:11:01.233024,13.20814649,.00016034,87.9176,267.5147,103.3605,256.7707,0,U,49310,999,23444,.12204487E-3,.63E-6,0
ONEWEB-0385,2021-090AJ,2026-07-22T03:19:16.375872,13.20771182,.00018647,87.9177,267.4752,97.1121,263.0225,0,U,49311,999,23441,.24006965E-3,.111E-5,0
ONEWEB-0386,2021-090AK,2026-07-22T03:43:30.098208,13.20769820,.00018338,87.9180,267.4640,101.7076,258.4263,0,U,49312,999,23443,-.38533645E-4,-.3E-7,0
ONEWEB-0387,2021-090AL,2026-07-22T03:21:41.781888,13.20770804,.00018573,87.9167,267.4847,88.3255,271.8091,0,U,49313,999,23443,.12357241E-3,.63E-6,0
ONEWEB-0388,2021-090AM,2026-07-21T12:36:34.048512,13.19724697,.00019009,87.9183,298.1324,100.5017,259.6330,0,U,49314,999,23094,.12454678E-3,.63E-6,0
ONEWEB-0389,2021-132A,2026-07-21T16:10:10.155360,13.17648404,.00016113,87.9154,359.0078,84.9807,275.1509,0,U,50469,999,22262,.11735356E-3,.58E-6,0
ONEWEB-0390,2021-132B,2026-07-21T08:55:12.447840,13.17648329,.00020777,87.9151,359.0690,90.0869,270.0501,0,U,50470,999,22258,.12931183E-3,.63E-6,0
ONEWEB-0391,2021-132C,2026-07-21T16:15:01.746720,13.17648020,.000176,87.9155,359.0182,67.6479,292.4839,0,U,50471,999,22262,.14600292E-4,.19E-6,0
ONEWEB-0392,2021-132D,2026-07-21T20:37:28.167456,13.17647414,.00016487,87.9162,358.9529,82.9228,277.2091,0,U,50472,999,22268,.66221179E-4,.39E-6,0
ONEWEB-0393,2021-132E,2026-07-21T23:40:57.269280,13.17647774,.00017258,87.9154,358.9419,89.5682,270.5647,0,U,50473,999,22269,-.34366225E-4,0,0
ONEWEB-0394,2021-132F,2026-07-22T07:18:55.649664,13.18685852,.00017499,87.9201,328.4607,100.1682,259.9648,0,U,50474,999,22622,.18459511E-3,.86E-6,0
