ONEWEB-0365             
1 49291U 21090N   26202.30425821  .00000088  00000+0  18623-3 0  9992
2 49291  87.9191 298.1756 0002105 101.4635 258.6735 13.19726971230926
ONEWEB-0366             
1 49292U 21090P   26202.68890324  .00000051  00000+0  10373-3 0  9992
2 49292  87.8964 282.8326 0002000  98.0554 262.0803 13.14502409232090
ONEWEB-0367             
1 49293U 21090Q   26203.16278243 -.00000065  00000+0 -19108-3 0  9999
2 49293  87.9176 267.4715 0002226  99.7693 260.3692 13.20773509234446
ONEWEB-0368             
1 49294U 21090R   26203.13671212  .00000012  00000+0 -35144-5 0  9991
2 49294  87.9165 267.4829 0001837 117.9195 242.2124 13.20771583235594
ONEWEB-0369             
1 49295U 21090S   26202.52696933  .00000124  00000+0  27781-3 0  9990
2 49295  87.9182 298.1363 0002023 102.6676 257.4683 13.19727214230943
ONEWEB-0370             
1 49296U 21090T   26203.17205401  .00000004  00000+0 -21111-4 0  9999
2 49296  87.9179 267.4688 0002224  91.6915 268.4473 13.20772549234480
ONEWEB-0371             
1 49297U 21090U   26202.68650538  .00000031  00000+0  44594-4 0  9999
2 49297  87.9190 298.0993 0002096 100.6399 259.4970 13.19725631231002
ONEWEB-0372             
1 49298U 21090V   26203.16181719 -.00000029  00000+0 -10374-3 0  9991
2 49298  87.9180 267.4729 0002068  98.4777 261.6591 13.20769639234456
ONEWEB-0373             
1 49299U 21090W   26203.18719838  .00000128  00000+0  28208-3 0  9996
2 49299  87.9177 267.4675 0001928  94.4621 265.6733 13.20770032235644
ONEWEB-0374             
1 49300U 21090X   26203.13290924  .00000219  00000+0  55558-3 0  9993
2 49300  87.8965 282.7361 0001436  93.3574 266.7720 13.14502723232156
ONEWEB-0375             
1 49301U 21090Y   26203.17541563 -.00000005  00000+0 -43134-4 0  9999
2 49301  87.9179 267.4620 0001520  88.8583 271.2725 13.20770324235145
ONEWEB-0376             
1 49302U 21090Z   26202.68491859  .00000019  00000+0  14972-4 0  9998
2 49302  87.9190 298.0995 0002128 104.8329 255.3040 13.19724082231008
ONEWEB-0377             
1 49303U 21090AA  26203.16207912 -.00000019  00000+0 -79044-4 0  9991
2 49303  87.9177 267.4667 0001719  97.8284 262.3044 13.20769718235133
ONEWEB-0378             
1 49304U 21090AB  26203.18229951  .00000068  00000+0  13431-3 0  9990
2 49304  87.9173 267.4656 0001905  98.3824 261.7525 13.20772699234409
ONEWEB-0379             
1 49305U 21090AC  26202.97592482  .00000243  00000+0  61985-3 0  9991
2 49305  87.8963 282.7772 0001879 100.0999 260.0343 13.14502524232138
ONEWEB-0380             
1 49306U 21090AD  26202.98502996  .00000002  00000+0 -26344-4 0  9999
2 49306  87.9181 298.0426 0001931  94.9946 265.1407 13.19726635231019
ONEWEB-0381             
1 49307U 21090AE  26203.15857815 -.00000034  00000+0 -11597-3 0  9992
2 49307  87.9180 267.4722 0001781  95.2828 264.8509 13.20769611234446
ONEWEB-0382             
1 49308U 21090AF  26203.14512356 -.00000011  00000+0 -59673-4 0  9993
2 49308  87.9176 267.4688 0001762 100.4828 259.6504 13.20772038234434
ONEWEB-0383             
1 49309U 21090AG  26203.19793106  .00000146  00000+0  36061-3 0  9995
2 49309  87.8965 282.7254 0001893 102.1416 257.9926 13.14503924232195
ONEWEB-0384             
1 49310U 21090AH  26203.13265316  .00000063  00000+0  12204-3 0  9999
2 49310  87.9176 267.5147 0001603 103.3605 256.7707 13.20814649234446
ONEWEB-0385             
1 49311U 21090AJ  26203.13838398  .00000111  00000+0  24007-3 0  9994
2 49311  87.9177 267.4752 0001864  97.1121 263.0225 13.20771182234418
ONEWEB-0386             
1 49312U 21090AK  26203.15520947 -.00000003  00000+0 -38534-4 0  9998
2 49312  87.9180 267.4640 0001833 101.7076 258.4263 13.20769820234434
ONEWEB-0387             
1 49313U 21090AL  26203.14006692  .00000063  00000+0  12357-3 0  9992
2 49313  87.9167 267.4847 0001857  88.3255 271.8091 13.20770804234436
ONEWEB-0388             
1 49314U 21090AM  26202.52539408  .00000063  00000+0  12455-3 0  9999
2 49314  87.9183 298.1324 0001900 100.5017 259.6330 13.19724697230947
ONEWEB-0389             
1 50469U 21132A   26202.67372865  .00000058  00000+0  11735-3 0  9991
2 50469  87.9154 359.0078 0001611  84.9807 275.1509 13.17648404222628
ONEWEB-0390             
1 50470U 21132B   26202.37167185  .00000063  00000+0  12931-3 0  9992
2 50470  87.9151 359.0690 0002077  90.0869 270.0501 13.17648329222587
ONEWEB-0391             
1 50471U 21132C   26202.67710355  .00000019  00000+0  14600-4 0  9996
2 50471  87.9155 359.0182 0001760  67.6479 292.4839 13.17648020222628
ONEWEB-0392             
1 50472U 21132D   26202.85935379  .00000039  00000+0  66221-4 0  9990
2 50472  87.9162 358.9529 0001648  82.9228 277.2091 13.17647414222680
ONEWEB-0393             
1 50473U 21132E   26202.98677395  .00000000  00000+0 -34366-4 0  9990
2 50473  87.9154 358.9419 0001725  89.5682 270.5647 13.17647774222696
ONEWEB-0394             
1 50474U 21132F   26203.30481076  .00000086  00000+0  18460-3 0  9996
2 50474  87.9201 328.4607 0001749 100.1682 259.9648 13.18685852226222
